STARLINK-2611           
1 48364U 21038M   26170.46700189  .00003978  00000+0  13984-3 0  9994
2 48364  53.1566 234.3140 0001278 106.2817 253.8326 15.31709284282824
STARLINK-2608           
1 48365U 21038N   26170.45303047  .00002087  00000+0  78936-4 0  9995
2 48365  53.1583 234.4361 0000994  85.2006 274.9109 15.31719222282826
STARLINK-2643           
1 48367U 21038Q   26170.49464018  .00001364  00000+0  55704-4 0  9992
2 48367  53.1581 231.7836 0001048  62.0165 298.0942 15.31707458282856
STARLINK-2623           
1 48368U 21038R   26170.47639811  .00001694  00000+0  66312-4 0  9999
2 48368  53.1594 234.8406 0001084  74.5884 285.5237 15.31715878282813
STARLINK-2621           
1 48370U 21038T   26170.46233106  .00002299  00000+0  85778-4 0  9997
2 48370  53.1589 234.2960 0001116  90.2545 269.8585 15.31718879282819
STARLINK-2589           
1 48371U 21038U   26170.47167531  .00003765  00000+0  13297-3 0  9992
2 48371  53.1570 234.3909 0001180  88.0487 272.0649 15.31715152282813
STARLINK-2609           
1 48373U 21038W   26170.35483597  .00000294  00000+0  21236-4 0  9991
2 48373  53.1579 232.5202 0001067  88.7790 271.3334 15.31708627282832
STARLINK-2604           
1 48374U 21038X   26170.38311025  .00003420  00000+0  12189-3 0  9991
2 48374  53.1585 234.6876 0001257  84.9746 275.1399 15.31712445282803
STARLINK-2603           
1 48375U 21038Y   26170.44869236 -.00000435  00000+0 -22645-5 0  9996
2 48375  53.1602 234.4068 0001106  81.7644 278.3483 15.31715903282812
STARLINK-2610           
1 48376U 21038Z   26170.54966949  .00062280  00000+0  54473-3 0  9993
2 48376  53.1565 227.9173 0002612  22.1364 337.9766 15.68344983282919
STARLINK-2499           
1 48377U 21038AA  26170.44371620  .00013430  00000+0  44374-3 0  9991
2 48377  53.1591 234.4842 0001355  85.9462 274.1694 15.31701845282819
STARLINK-2526           
1 48378U 21038AB  26170.45771632  .00006933  00000+0  23493-3 0  9999
2 48378  53.1581 234.5741 0001229  89.2662 270.8480 15.31704185282813
STARLINK-2612           
1 48379U 21038AC  26170.49003072  .00000907  00000+0  40964-4 0  9998
2 48379  53.1591 232.1566 0000822  73.6089 286.5003 15.31711050282850
STARLINK-2614           
1 48380U 21038AD  26170.43408040  .00001276  00000+0  52862-4 0  9998
2 48380  53.1600 232.2997 0001327  71.8786 288.2359 15.31710736282849
STARLINK-2630           
1 48381U 21038AE  26170.48105205 -.00005003  00000+0 -14956-3 0  9996
2 48381  53.1578 234.8032 0001382  86.9821 273.1339 15.31697346282819
STARLINK-2585           
1 48382U 21038AF  26170.49065450  .00014728  00000+0  48615-3 0  9996
2 48382  53.1590 234.1935 0001452  90.2043 269.9125 15.31652516282828
STARLINK-2598           
1 48385U 21038AJ  26170.37346192 -.00003002  00000+0 -84955-4 0  9994
2 48385  53.1583 232.3717 0001085  79.8646 280.2478 15.31723662284061
STARLINK-2606           
1 48386U 21038AK  26170.48034613 -.00002355  00000+0 -64145-4 0  9998
2 48386  53.1579 231.9915 0001092  96.6431 263.4695 15.31702349282846
STARLINK-2594           
1 48388U 21038AM  26170.48498295  .00001907  00000+0  73198-4 0  9998
2 48388  53.1568 231.7650 0001466  78.7980 281.3186 15.31708578282850
STARLINK-2586           
1 48390U 21038AP  26170.42167568  .00001741  00000+0  67833-4 0  9996
2 48390  53.1591 219.3843 0001324 110.6096 249.5047 15.31713628284241
STARLINK-2607           
1 48391U 21038AQ  26170.38411239  .00003113  00000+0  11202-3 0  9992
2 48391  53.1589 219.9124 0001142  85.1400 274.9732 15.31702986284237
STARLINK-2605           
1 48392U 21038AR  26170.40301951  .00001080  00000+0  46531-4 0  9990
2 48392  53.1586 219.3638 0001302  82.2852 277.8297 15.31713408284246
STARLINK-2574           
1 48395U 21038AU  26170.35206929  .00002372  00000+0  88131-4 0  9993
2 48395  53.1590 221.9598 0001163  82.5936 277.5197 15.31719081284204
STARLINK-2575           
1 48396U 21038AV  26170.32378688  .00000848  00000+0  39089-4 0  9997
2 48396  53.1586 219.6914 0001299  85.4245 274.6905 15.31705274284238
STARLINK-2590           
1 48397U 21038AW  26170.39837232  .00001801  00000+0  69779-4 0  9999
2 48397  53.1576 219.4745 0000940  68.4430 291.6671 15.31705688284246
STARLINK-2588           
1 48398U 21038AX  26170.47286552  .00025651  00000+0  11601-2 0  9990
2 48398  53.0725 233.9916 0004356  47.8791 312.2575 15.20778059284028
STARLINK-2587           
1 48399U 21038AY  26170.31913660  .00004475  00000+0  15587-3 0  9990
2 48399  53.1571 219.7762 0001302  80.1906 279.9242 15.31703204284220
STARLINK-2576           
1 48400U 21038AZ  26170.40774508 -.00000776  00000+0 -13235-4 0  9990
2 48400  53.1593 219.6539 0001211  92.6481 267.4659 15.31698812283022
STARLINK-2571           
1 48401U 21038BA  26170.50993533  .00002051  00000+0  77806-4 0  9993
2 48401  53.1572 219.2083 0001341  84.5726 275.5428 15.31709899283039
STARLINK-2593           
1 48404U 21038BD  26170.51023829  .00001002  00000+0  44047-4 0  9995
2 48404  53.1585 218.9844 0001323  89.1429 270.9724 15.31705042283043
