OBJECT_NAME,OBJECT_ID,EPOCH,MEAN_MOTION,ECCENTRICITY,INCLINATION,RA_OF_ASC_NODE,ARG_OF_PERICENTER,MEAN_ANOMALY,EPHEMERIS_TYPE,CLASSIFICATION_TYPE,NORAD_CAT_ID,ELEMENT_SET_NO,REV_AT_EPOCH,BSTAR,MEAN_MOTION_DOT,MEAN_MOTION_DDOT
STARLINK-2611,2021-038M,2026-06-19T11:12:28.963296,15.31709284,.00012787,53.1566,234.3140,106.2817,253.8326,0,U,48364,999,28282,.13983542E-3,.3978E-4,0
STARLINK-2608,2021-038N,2026-06-19T10:52:21.832608,15.31719222,.00009943,53.1583,234.4361,85.2006,274.9109,0,U,48365,999,28282,.78935994E-4,.2087E-4,0
STARLINK-2643,2021-038Q,2026-06-19T11:52:16.911552,15.31707458,.00010486,53.1581,231.7836,62.0165,298.0942,0,U,48367,999,28285,.55704342E-4,.1364E-4,0
STARLINK-2623,2021-038R,2026-06-19T11:26:00.796704,15.31715878,.00010844,53.1594,234.8406,74.5884,285.5237,0,U,48368,999,28281,.66311773E-4,.1694E-4,0
STARLINK-2621,2021-038T,2026-06-19T11:05:45.403584,15.31718879,.00011169,53.1589,234.2960,90.2545,269.8585,0,U,48370,999,28281,.85777884E-4,.2299E-4,0
STARLINK-2589,2021-038U,2026-06-19T11:19:12.746784,15.31715152,.00011804,53.1570,234.3909,88.0487,272.0649,0,U,48371,999,28281,.13297075E-3,.3765E-4,0
STARLINK-2609,2021-038W,2026-06-19T08:30:57.827808,15.31708627,.00010675,53.1579,232.5202,88.7790,271.3334,0,U,48373,999,28283,.21235568E-4,.294E-5,0
STARLINK-2604,2021-038X,2026-06-19T09:11:40.725600,15.31712445,.00012572,53.1585,234.6876,84.9746,275.1399,0,U,48374,999,28280,.12188708E-3,.342E-4,0
STARLINK-2603,2021-038Y,2026-06-19T10:46:07.019904,15.31715903,.00011065,53.1602,234.4068,81.7644,278.3483,0,U,48375,999,28281,-.2264515E-5,-.435E-5,0
STARLINK-2610,2021-038Z,2026-06-19T13:11:31.443936,15.68344983,.0002612,53.1565,227.9173,22.1364,337.9766,0,U,48376,999,28291,.54472858E-3,.6228E-3,0
STARLINK-2499,2021-038AA,2026-06-19T10:38:57.079680,15.31701845,.00013559,53.1591,234.4842,85.9462,274.1694,0,U,48377,999,28281,.44373534E-3,.1343E-3,0
STARLINK-2526,2021-038AB,2026-06-19T10:59:06.690048,15.31704185,.0001229,53.1581,234.5741,89.2662,270.8480,0,U,48378,999,28281,.23493475E-3,.6933E-4,0
STARLINK-2612,2021-038AC,2026-06-19T11:45:38.654208,15.31711050,.00008226,53.1591,232.1566,73.6089,286.5003,0,U,48379,999,28285,.40964483E-4,.907E-5,0
STARLINK-2614,2021-038AD,2026-06-19T10:25:04.546560,15.31710736,.00013275,53.1600,232.2997,71.8786,288.2359,0,U,48380,999,28284,.52861927E-4,.1276E-4,0
STARLINK-2630,2021-038AE,2026-06-19T11:32:42.897120,15.31697346,.00013823,53.1578,234.8032,86.9821,273.1339,0,U,48381,999,28281,-.14955561E-3,-.5003E-4,0
STARLINK-2585,2021-038AF,2026-06-19T11:46:32.548800,15.31652516,.00014528,53.1590,234.1935,90.2043,269.9125,0,U,48382,999,28282,.48615144E-3,.14728E-3,0
STARLINK-2598,2021-038AJ,2026-06-19T08:57:47.109888,15.31723662,.00010851,53.1583,232.3717,79.8646,280.2478,0,U,48385,999,28406,-.84955475E-4,-.3002E-4,0
STARLINK-2606,2021-038AK,2026-06-19T11:31:41.905632,15.31702349,.0001092,53.1579,231.9915,96.6431,263.4695,0,U,48386,999,28284,-.64145259E-4,-.2355E-4,0
STARLINK-2594,2021-038AM,2026-06-19T11:38:22.526880,15.31708578,.00014665,53.1568,231.7650,78.7980,281.3186,0,U,48388,999,28285,.73197621E-4,.1907E-4,0
STARLINK-2586,2021-038AP,2026-06-19T10:07:12.778752,15.31713628,.00013249,53.1591,219.3843,110.6096,249.5047,0,U,48390,999,28424,.67832703E-4,.1741E-4,0
STARLINK-2607,2021-038AQ,2026-06-19T09:13:07.310496,15.31702986,.00011427,53.1589,219.9124,85.1400,274.9732,0,U,48391,999,28423,.11202473E-3,.3113E-4,0
STARLINK-2605,2021-038AR,2026-06-19T09:40:20.885664,15.31713408,.00013025,53.1586,219.3638,82.2852,277.8297,0,U,48392,999,28424,.46530856E-4,.108E-4,0
STARLINK-2574,2021-038AU,2026-06-19T08:26:58.786656,15.31719081,.00011638,53.1590,221.9598,82.5936,277.5197,0,U,48395,999,28420,.88131215E-4,.2372E-4,0
STARLINK-2575,2021-038AV,2026-06-19T07:46:15.186432,15.31705274,.00012997,53.1586,219.6914,85.4245,274.6905,0,U,48396,999,28423,.39089269E-4,.848E-5,0
STARLINK-2590,2021-038AW,2026-06-19T09:33:39.368448,15.31705688,.00009406,53.1576,219.4745,68.4430,291.6671,0,U,48397,999,28424,.69779147E-4,.1801E-4,0
STARLINK-2588,2021-038AX,2026-06-19T11:20:55.580928,15.20778059,.00043561,53.0725,233.9916,47.8791,312.2575,0,U,48398,999,28402,.11600754E-2,.25651E-3,0
STARLINK-2587,2021-038AY,2026-06-19T07:39:33.402240,15.31703204,.00013029,53.1571,219.7762,80.1906,279.9242,0,U,48399,999,28422,.15586971E-3,.4475E-4,0
STARLINK-2576,2021-038AZ,2026-06-19T09:47:09.174912,15.31698812,.00012116,53.1593,219.6539,92.6481,267.4659,0,U,48400,999,28302,-.13235216E-4,-.776E-5,0
STARLINK-2571,2021-038BA,2026-06-19T12:14:18.412512,15.31709899,.00013414,53.1572,219.2083,84.5726,275.5428,0,U,48401,999,28303,.77805631E-4,.2051E-4,0
STARLINK-2593,2021-038BD,2026-06-19T12:14:44.588256,15.31705042,.00013232,53.1585,218.9844,89.1429,270.9724,0,U,48404,999,28304,.44046654E-4,.1002E-4,0
